[{"OBJECT_ID":"1999-014B","OBJECT_NAME":"BLOCK DM-SL R/B","NORAD_CAT_ID":"25662","OBJECT_TYPE":"ROCKET BODY","PERIOD":"641.992","INCLINATION":"0.6642","APOGEE":"35972.294","PERIGEE":"574.803","ECCENTRICITY":"0.7179528","MEAN_MOTION":"2.24301859","TLE_LINE1":"1 25662U 99014B   16239.15632736 -.00000077  00000-0  40498-4 0  9992","TLE_LINE2":"2 25662   0.6642 178.8405 7179528 279.8127 128.7736  2.24301859142712","LAUNCH_DATE":"1999-03-28","LAUNCH_SITE":"SEA LAUNCH","OWNER":"SEA LAUNCH DEMO","ORBIT_TYPE":"Highly Elliptical Orbit","OPERATIONAL_STATUS":"N/A, derelict rocket body","satInfo":{"lng":160.49719137300852,"lat":-1.2507979379311212,"elevation":-9.78929896703577,"azimuth":154.50280862699145,"range":42799.93249719991,"height":35808.656365010705,"velocity":1.6515634376436767},"x":85,"y":242,"dx":-1.5568051948568475,"dy":0.5513795188689293,"maxAlt":258,"minAlt":3},{"OBJECT_ID":"1999-027A","OBJECT_NAME":"NIMIQ 1","NORAD_CAT_ID":"25740","OBJECT_TYPE":"PAYLOAD","PERIOD":"1436.131","INCLINATION":"0.0607","APOGEE":"35800.622","PERIGEE":"35773.914","ECCENTRICITY":"0.0003167","MEAN_MOTION":"1.0026939","TLE_LINE1":"1 25740U 99027A   16239.28969440 -.00000226  00000-0  00000+0 0  9998","TLE_LINE2":"2 25740   0.0607 283.6969 0003167 238.4547 190.5539  1.00269390 63298","LAUNCH_DATE":"1999-05-20","LAUNCH_SITE":"TYURATAM MISSILE AND SPACE COMPLEX","OWNER":"CANADA","ORBIT_TYPE":"Geosynchronous","OPERATIONAL_STATUS":"Operational","satInfo":{"lng":-103.08787538802518,"lat":-0.019820850936773503,"elevation":-8.59114478982735,"azimuth":58.08787538802515,"range":42653.56632927674,"height":35796.83666950099,"velocity":3.074273681321763},"x":-253,"y":57,"dx":-0.6961545033245661,"dy":-2.9944160658079215,"maxAlt":256,"minAlt":256},{"OBJECT_ID":"1999-042A","OBJECT_NAME":"TELKOM 1","NORAD_CAT_ID":"25880","OBJECT_TYPE":"PAYLOAD","PERIOD":"1436.087","INCLINATION":"0.0344","APOGEE":"35788.916","PERIGEE":"35783.924","ECCENTRICITY":"5.92e-05","MEAN_MOTION":"1.00272415","TLE_LINE1":"1 25880U 99042A   16238.89956262 -.00000372 +00000-0 +00000-0 0  9997","TLE_LINE2":"2 25880 000.0344 238.8519 0000592 317.1256 210.4353 01.00272415062461","LAUNCH_DATE":"1999-08-12","LAUNCH_SITE":"FRENCH GUIANA","OWNER":"INDONESIA","ORBIT_TYPE":"Geosynchronous","OPERATIONAL_STATUS":"Operational","satInfo":{"lng":49.123357206732656,"lat":0.577368070527825,"elevation":-8.00760084166268,"azimuth":265.8766427932673,"range":42587.10095826106,"height":35795.861678833186,"velocity":3.0744478985066874},"x":194,"y":-170,"dx":2.0120190177885053,"dy":2.324652522999849,"maxAlt":256,"minAlt":256},{"OBJECT_ID":"1999-046A","OBJECT_NAME":"ABS 7 (KOREASAT 3)","NORAD_CAT_ID":"25894","OBJECT_TYPE":"PAYLOAD","PERIOD":"1436.155","INCLINATION":"0.036","APOGEE":"35793.802","PERIGEE":"35781.700","ECCENTRICITY":"0.0001435","MEAN_MOTION":"1.00267666","TLE_LINE1":"1 25894U 99046A   16238.38141640  .00000000  00000-0  10000-3 0  9997","TLE_LINE2":"2 25894   0.0360 258.3095 0001435 238.3359  90.8363  1.00267666 61232","LAUNCH_DATE":"1999-09-04","LAUNCH_SITE":"FRENCH GUIANA","OWNER":"SOUTH KOREA","ORBIT_TYPE":"Geosynchronous","OPERATIONAL_STATUS":"Operational","satInfo":{"lng":57.53414600097548,"lat":0.25756905380784223,"elevation":-8.317874536945968,"azimuth":257.46585399902455,"range":42634.18669679891,"height":35807.993995179946,"velocity":3.0739113464044627},"x":216,"y":-140,"dx":1.6500660363572017,"dy":2.593494368841878,"maxAlt":256,"minAlt":256},{"OBJECT_ID":"1999-053A","OBJECT_NAME":"ABS 6 (LMI 1)","NORAD_CAT_ID":"25924","OBJECT_TYPE":"PAYLOAD","PERIOD":"1436.092","INCLINATION":"0.043","APOGEE":"35798.447","PERIGEE":"35774.573","ECCENTRICITY":"0.0002831","MEAN_MOTION":"1.00272094","TLE_LINE1":"1 25924U 99053A   16238.62967084 -.00000146 +00000-0 +00000-0 0  9992","TLE_LINE2":"2 25924 000.0430 280.1589 0002831 215.7681 224.0895 01.00272094061954","LAUNCH_DATE":"1999-09-26","LAUNCH_SITE":"TYURATAM MISSILE AND SPACE COMPLEX","OWNER":"PEOPLES REPUBLIC OF CHINA","ORBIT_TYPE":"Geosynchronous","OPERATIONAL_STATUS":"Operational","satInfo":{"lng":-96.12448878871102,"lat":-0.43512627734269654,"elevation":-8.99309977697349,"azimuth":51.12448878871101,"range":42716.30011500368,"height":35814.27451163013,"velocity":3.073888342585209},"x":-258,"y":26,"dx":-0.32795023196626527,"dy":-3.056343925024557,"maxAlt":256,"minAlt":256},{"OBJECT_ID":"1999-056B","OBJECT_NAME":"BLOCK DM-SL R/B","NORAD_CAT_ID":"25938","OBJECT_TYPE":"ROCKET BODY","PERIOD":"678.723","INCLINATION":"0.5477","APOGEE":"35711.986","PERIGEE":"2698.216","ECCENTRICITY":"0.6452227","MEAN_MOTION":"2.12162942","TLE_LINE1":"1 25938U 99056B   16238.20033332 -.00000197 +00000-0 +00000-0 0  9990","TLE_LINE2":"2 25938 000.5477 038.7653 6452227 314.4463 354.9799 02.12162942130769","LAUNCH_DATE":"1999-10-10","LAUNCH_SITE":"SEA LAUNCH","OWNER":"SEA LAUNCH DEMO","ORBIT_TYPE":"Highly Elliptical Orbit","OPERATIONAL_STATUS":"N/A, derelict rocket body","satInfo":{"lng":-115.85498762844239,"lat":-0.6235986314271872,"elevation":-9.207990950636137,"azimuth":70.85498762844236,"range":42583.5844253929,"height":35659.20080952729,"velocity":1.8396114064992024},"x":-233,"y":111,"dx":-0.8022452413596914,"dy":-1.6554675169382527,"maxAlt":256,"minAlt":18},{"OBJECT_ID":"1999-059A","OBJECT_NAME":"TELSTAR 12 (ORION 2)","NORAD_CAT_ID":"25949","OBJECT_TYPE":"PAYLOAD","PERIOD":"1436.097","INCLINATION":"0.3162","APOGEE":"35797.304","PERIGEE":"35775.918","ECCENTRICITY":"0.0002536","MEAN_MOTION":"1.00271732","TLE_LINE1":"1 25949U 99059A   16239.57688127 -.00000091  00000-0  00000+0 0  9996","TLE_LINE2":"2 25949   0.3162  89.5421 0002536  67.5440 276.6211  1.00271732 61616","LAUNCH_DATE":"1999-10-19","LAUNCH_SITE":"FRENCH GUIANA","OWNER":"UNITED STATES OF AMERICA","ORBIT_TYPE":"Geosynchronous","OPERATIONAL_STATUS":"Operational","satInfo":{"lng":-105.21057285177046,"lat":0.5798142371231642,"elevation":-8.007556323938806,"azimuth":60.21057285177045,"range":42575.27365988184,"height":35784.17187496292,"velocity":3.074768388517172},"x":-250,"y":66,"dx":-0.8067185255803693,"dy":-2.9670533974820748,"maxAlt":256,"minAlt":256},{"OBJECT_ID":"1999-060A","OBJECT_NAME":"AMC-4 (GE-4)","NORAD_CAT_ID":"25954","OBJECT_TYPE":"PAYLOAD","PERIOD":"1436.198","INCLINATION":"0.0249","APOGEE":"35804.818","PERIGEE":"35772.349","ECCENTRICITY":"0.000385","MEAN_MOTION":"1.00264697","TLE_LINE1":"1 25954U 99060A   16238.44151374  .00000000  00000-0  10000-3 0  9992","TLE_LINE2":"2 25954   0.0249  26.0876 0003850  59.5157 340.4149  1.00264697 61455","LAUNCH_DATE":"1999-11-13","LAUNCH_SITE":"FRENCH GUIANA","OWNER":"SOCIÉTÉ EUROPÉENNE DES SATELLITES","ORBIT_TYPE":"Geosynchronous","OPERATIONAL_STATUS":"Operational","satInfo":{"lng":-85.00425826957463,"lat":0.9150515535695056,"elevation":-7.679276963251879,"azimuth":40.00425826957463,"range":42539.487667259935,"height":35785.21092068156,"velocity":3.075346675135487},"x":-258,"y":-24,"dx":0.26780643038592267,"dy":-3.0636639646199524,"maxAlt":256,"minAlt":256},{"OBJECT_ID":"1999-071A","OBJECT_NAME":"GALAXY 11","NORAD_CAT_ID":"26038","OBJECT_TYPE":"PAYLOAD","PERIOD":"1436.089","INCLINATION":"0.0421","APOGEE":"35791.314","PERIGEE":"35781.574","ECCENTRICITY":"0.0001155","MEAN_MOTION":"1.00272328","TLE_LINE1":"1 26038U 99071A   16239.03591009  .00000020  00000-0  00000+0 0  9994","TLE_LINE2":"2 26038   0.0421 305.1640 0001155  67.5175  35.0333  1.00272328 61199","LAUNCH_DATE":"1999-12-22","LAUNCH_SITE":"FRENCH GUIANA","OWNER":"UNITED STATES OF AMERICA","ORBIT_TYPE":"Geosynchronous","OPERATIONAL_STATUS":"Operational","satInfo":{"lng":90.16896499892074,"lat":-0.26434704126049563,"elevation":-8.831567504347841,"azimuth":224.83103500107924,"range":42672.168834414515,"height":35788.55649724342,"velocity":3.0745519586876693},"x":256,"y":-1,"dx":-0.00906682690819791,"dy":3.07453858966187,"maxAlt":256,"minAlt":256},{"OBJECT_ID":"2000-007A","OBJECT_NAME":"HISPASAT 1C","NORAD_CAT_ID":"26071","OBJECT_TYPE":"PAYLOAD","PERIOD":"1436.099","INCLINATION":"0.0334","APOGEE":"35796.187","PERIGEE":"35777.103","ECCENTRICITY":"0.0002263","MEAN_MOTION":"1.00271611","TLE_LINE1":"1 26071U 00007A   16238.65024102 -.00000239  00000-0  00000+0 0  9997","TLE_LINE2":"2 26071   0.0334  21.8718 0002263 158.8085 303.8955  1.00271611 60719","LAUNCH_DATE":"2000-02-03","LAUNCH_SITE":"AIR FORCE EASTERN TEST RANGE","OWNER":"SPAIN","ORBIT_TYPE":"Geosynchronous","OPERATIONAL_STATUS":"Operational","satInfo":{"lng":-100.34821630784731,"lat":0.7680574641920347,"elevation":-7.820167767286061,"azimuth":55.3482163078473,"range":42570.36253392448,"height":35800.10727560477,"velocity":3.074075481418964},"x":-255,"y":45,"dx":-0.5521965591569776,"dy":-3.024073250686304,"maxAlt":256,"minAlt":256},{"OBJECT_ID":"2000-011A","OBJECT_NAME":"GARUDA 1","NORAD_CAT_ID":"26089","OBJECT_TYPE":"PAYLOAD","PERIOD":"1441.429","INCLINATION":"1.2856","APOGEE":"35912.374","PERIGEE":"35869.437","ECCENTRICITY":"0.0005079","MEAN_MOTION":"0.99900847","TLE_LINE1":"1 26089U 00011A   16238.86923847 -.00000105 +00000-0 +00000-0 0  9991","TLE_LINE2":"2 26089 001.2856 134.4562 0005079 050.4465 185.1813 00.99900847005861","LAUNCH_DATE":"2000-02-12","LAUNCH_SITE":"TYURATAM MISSILE AND SPACE COMPLEX","OWNER":"INDONESIA","ORBIT_TYPE":"Geosynchronous","OPERATIONAL_STATUS":"Nonoperational","satInfo":{"lng":29.97455821735715,"lat":2.964513707235133,"elevation":-5.65117504632006,"azimuth":285.02544178264293,"range":42393.60808124382,"height":35865.90730209972,"velocity":3.072590271141651},"x":128,"y":-225,"dx":2.661623148781238,"dy":1.535113412157607,"maxAlt":257,"minAlt":257}]